CCSDS_OMM_VERS = 2.0
CREATION_DATE  = 
ORIGINATOR     = 

OBJECT_NAME    = STARLINK-35979
OBJECT_ID      = 2025-278U
CENTER_NAME    = EARTH
REF_FRAME      = TEME
TIME_SYSTEM    = UTC
MEAN_ELEMENT_THEORY = SGP/SGP4

EPOCH          = 2025-12-27T17:27:39.422304
MEAN_MOTION    = 15.50676069
ECCENTRICITY   = .00024707
INCLINATION    = 43.0017
RA_OF_ASC_NODE = 162.4804
ARG_OF_PERICENTER = 254.6457
MEAN_ANOMALY   = 105.4130

EPHEMERIS_TYPE = 0
CLASSIFICATION_TYPE = U
NORAD_CAT_ID   = 66809
ELEMENT_SET_NO = 999
REV_AT_EPOCH   = 418
BSTAR          = .20256397E-2
MEAN_MOTION_DOT = .120765E-2
MEAN_MOTION_DDOT = 0

CCSDS_OMM_VERS = 2.0
CREATION_DATE  = 
ORIGINATOR     = 

OBJECT_NAME    = STARLINK-36046
OBJECT_ID      = 2025-278V
CENTER_NAME    = EARTH
REF_FRAME      = TEME
TIME_SYSTEM    = UTC
MEAN_ELEMENT_THEORY = SGP/SGP4

EPOCH          = 2025-12-27T17:28:38.716896
MEAN_MOTION    = 15.50656871
ECCENTRICITY   = .00030756
INCLINATION    = 43.0020
RA_OF_ASC_NODE = 162.4871
ARG_OF_PERICENTER = 263.3299
MEAN_ANOMALY   = 96.7212

EPHEMERIS_TYPE = 0
CLASSIFICATION_TYPE = U
NORAD_CAT_ID   = 66810
ELEMENT_SET_NO = 999
REV_AT_EPOCH   = 418
BSTAR          = .189685E-2
MEAN_MOTION_DOT = .112879E-2
MEAN_MOTION_DDOT = 0

CCSDS_OMM_VERS = 2.0
CREATION_DATE  = 
ORIGINATOR     = 

OBJECT_NAME    = STARLINK-36045
OBJECT_ID      = 2025-278W
CENTER_NAME    = EARTH
REF_FRAME      = TEME
TIME_SYSTEM    = UTC
MEAN_ELEMENT_THEORY = SGP/SGP4

EPOCH          = 2025-12-27T17:28:09.136992
MEAN_MOTION    = 15.50679350
ECCENTRICITY   = .00031895
INCLINATION    = 43.0015
RA_OF_ASC_NODE = 162.4844
ARG_OF_PERICENTER = 265.6374
MEAN_ANOMALY   = 94.4122

EPHEMERIS_TYPE = 0
CLASSIFICATION_TYPE = U
NORAD_CAT_ID   = 66811
ELEMENT_SET_NO = 999
REV_AT_EPOCH   = 418
BSTAR          = .23916493E-2
MEAN_MOTION_DOT = .143082E-2
MEAN_MOTION_DDOT = 0

CCSDS_OMM_VERS = 2.0
CREATION_DATE  = 
ORIGINATOR     = 

OBJECT_NAME    = STARLINK-36054
OBJECT_ID      = 2025-278X
CENTER_NAME    = EARTH
REF_FRAME      = TEME
TIME_SYSTEM    = UTC
MEAN_ELEMENT_THEORY = SGP/SGP4

EPOCH          = 2025-12-27T17:27:09.804384
MEAN_MOTION    = 15.50692446
ECCENTRICITY   = .00018011
INCLINATION    = 42.9997
RA_OF_ASC_NODE = 162.4779
ARG_OF_PERICENTER = 254.7116
MEAN_ANOMALY   = 105.3545

EPHEMERIS_TYPE = 0
CLASSIFICATION_TYPE = U
NORAD_CAT_ID   = 66812
ELEMENT_SET_NO = 999
REV_AT_EPOCH   = 418
BSTAR          = .22699185E-2
MEAN_MOTION_DOT = .135705E-2
MEAN_MOTION_DDOT = 0

CCSDS_OMM_VERS = 2.0
CREATION_DATE  = 
ORIGINATOR     = 

OBJECT_NAME    = STARLINK-36042
OBJECT_ID      = 2025-278Y
CENTER_NAME    = EARTH
REF_FRAME      = TEME
TIME_SYSTEM    = UTC
MEAN_ELEMENT_THEORY = SGP/SGP4

EPOCH          = 2025-12-27T17:26:40.240896
MEAN_MOTION    = 15.50674661
ECCENTRICITY   = .00023771
INCLINATION    = 43.0019
RA_OF_ASC_NODE = 162.4746
ARG_OF_PERICENTER = 248.8594
MEAN_ANOMALY   = 111.2013

EPHEMERIS_TYPE = 0
CLASSIFICATION_TYPE = U
NORAD_CAT_ID   = 66813
ELEMENT_SET_NO = 999
REV_AT_EPOCH   = 418
BSTAR          = .20383181E-2
MEAN_MOTION_DOT = .121528E-2
MEAN_MOTION_DDOT = 0

CCSDS_OMM_VERS = 2.0
CREATION_DATE  = 
ORIGINATOR     = 

OBJECT_NAME    = STARLINK-35984
OBJECT_ID      = 2025-278Z
CENTER_NAME    = EARTH
REF_FRAME      = TEME
TIME_SYSTEM    = UTC
MEAN_ELEMENT_THEORY = SGP/SGP4

EPOCH          = 2025-12-29T14:00:03.000384
MEAN_MOTION    = 15.40662582
ECCENTRICITY   = .00016948
INCLINATION    = 42.9999
RA_OF_ASC_NODE = 151.7905
ARG_OF_PERICENTER = 273.9182
MEAN_ANOMALY   = 311.4898

EPHEMERIS_TYPE = 0
CLASSIFICATION_TYPE = U
NORAD_CAT_ID   = 66814
ELEMENT_SET_NO = 999
REV_AT_EPOCH   = 575
BSTAR          = .80226047E-3
MEAN_MOTION_DOT = .33314E-3
MEAN_MOTION_DDOT = 0

CCSDS_OMM_VERS = 2.0
CREATION_DATE  = 
ORIGINATOR     = 

OBJECT_NAME    = STARLINK-35985
OBJECT_ID      = 2025-278AA
CENTER_NAME    = EARTH
REF_FRAME      = TEME
TIME_SYSTEM    = UTC
MEAN_ELEMENT_THEORY = SGP/SGP4

EPOCH          = 2025-12-27T18:56:57.222816
MEAN_MOTION    = 15.50644265
ECCENTRICITY   = .00022628
INCLINATION    = 43.0016
RA_OF_ASC_NODE = 162.0840
ARG_OF_PERICENTER = 262.4248
MEAN_ANOMALY   = 97.6355

EPHEMERIS_TYPE = 0
CLASSIFICATION_TYPE = U
NORAD_CAT_ID   = 66815
ELEMENT_SET_NO = 999
REV_AT_EPOCH   = 540
BSTAR          = .13744284E-2
MEAN_MOTION_DOT = .81324E-3
MEAN_MOTION_DDOT = 0

CCSDS_OMM_VERS = 2.0
CREATION_DATE  = 
ORIGINATOR     = 

OBJECT_NAME    = STARLINK-36098
OBJECT_ID      = 2025-278AB
CENTER_NAME    = EARTH
REF_FRAME      = TEME
TIME_SYSTEM    = UTC
MEAN_ELEMENT_THEORY = SGP/SGP4

EPOCH          = 2025-12-27T18:58:55.691904
MEAN_MOTION    = 15.50673307
ECCENTRICITY   = .00032886
INCLINATION    = 43.0009
RA_OF_ASC_NODE = 162.0953
ARG_OF_PERICENTER = 254.5726
MEAN_ANOMALY   = 105.4771

EPHEMERIS_TYPE = 0
CLASSIFICATION_TYPE = U
NORAD_CAT_ID   = 66816
ELEMENT_SET_NO = 999
REV_AT_EPOCH   = 419
BSTAR          = .20427012E-2
MEAN_MOTION_DOT = .121798E-2
MEAN_MOTION_DDOT = 0

CCSDS_OMM_VERS = 2.0
CREATION_DATE  = 
ORIGINATOR     = 

OBJECT_NAME    = STARLINK-35995
OBJECT_ID      = 2025-278AC
CENTER_NAME    = EARTH
REF_FRAME      = TEME
TIME_SYSTEM    = UTC
MEAN_ELEMENT_THEORY = SGP/SGP4

EPOCH          = 2025-12-28T21:14:49.916544
MEAN_MOTION    = 15.50687189
ECCENTRICITY   = .00013027
INCLINATION    = 42.9970
RA_OF_ASC_NODE = 155.6880
ARG_OF_PERICENTER = 303.9393
MEAN_ANOMALY   = 56.1344

EPHEMERIS_TYPE = 0
CLASSIFICATION_TYPE = U
NORAD_CAT_ID   = 66817
ELEMENT_SET_NO = 999
REV_AT_EPOCH   = 436
BSTAR          = .1827928E-2
MEAN_MOTION_DOT = .108816E-2
MEAN_MOTION_DDOT = 0

CCSDS_OMM_VERS = 2.0
CREATION_DATE  = 
ORIGINATOR     = 

OBJECT_NAME    = STARLINK-35994
OBJECT_ID      = 2025-278AD
CENTER_NAME    = EARTH
REF_FRAME      = TEME
TIME_SYSTEM    = UTC
MEAN_ELEMENT_THEORY = SGP/SGP4

EPOCH          = 2025-12-29T14:00:03.000384
MEAN_MOTION    = 15.40668291
ECCENTRICITY   = .00021101
INCLINATION    = 42.9997
RA_OF_ASC_NODE = 151.9128
ARG_OF_PERICENTER = 284.0671
MEAN_ANOMALY   = 251.5594

EPHEMERIS_TYPE = 0
CLASSIFICATION_TYPE = U
NORAD_CAT_ID   = 66818
ELEMENT_SET_NO = 999
REV_AT_EPOCH   = 566
BSTAR          = .76078118E-3
MEAN_MOTION_DOT = .31575E-3
MEAN_MOTION_DDOT = 0

CCSDS_OMM_VERS = 2.0
CREATION_DATE  = 
ORIGINATOR     = 

OBJECT_NAME    = STARLINK-35989
OBJECT_ID      = 2025-278AE
CENTER_NAME    = EARTH
REF_FRAME      = TEME
TIME_SYSTEM    = UTC
MEAN_ELEMENT_THEORY = SGP/SGP4

EPOCH          = 2025-12-29T11:09:08.888544
MEAN_MOTION    = 15.50576839
ECCENTRICITY   = .00016843
INCLINATION    = 42.9995
RA_OF_ASC_NODE = 152.2931
ARG_OF_PERICENTER = 265.8976
MEAN_ANOMALY   = 94.1691

EPHEMERIS_TYPE = 0
CLASSIFICATION_TYPE = U
NORAD_CAT_ID   = 66819
ELEMENT_SET_NO = 999
REV_AT_EPOCH   = 445
BSTAR          = .6912961E-5
MEAN_MOTION_DOT = .64E-6
MEAN_MOTION_DDOT = 0

CCSDS_OMM_VERS = 2.0
CREATION_DATE  = 
ORIGINATOR     = 

OBJECT_NAME    = KOMPSAT-7
OBJECT_ID      = 2025-279A
CENTER_NAME    = EARTH
REF_FRAME      = TEME
TIME_SYSTEM    = UTC
MEAN_ELEMENT_THEORY = SGP/SGP4

EPOCH          = 2025-12-29T14:44:32.921088
MEAN_MOTION    = 15.00878322
ECCENTRICITY   = .00101147
INCLINATION    = 97.6459
RA_OF_ASC_NODE = 309.1932
ARG_OF_PERICENTER = 200.1642
MEAN_ANOMALY   = 159.9184

EPHEMERIS_TYPE = 0
CLASSIFICATION_TYPE = U
NORAD_CAT_ID   = 66820
ELEMENT_SET_NO = 999
REV_AT_EPOCH   = 418
BSTAR          = .3550958E-3
MEAN_MOTION_DOT = .4464E-4
MEAN_MOTION_DDOT = 0

